[{"OBJECT_NAME":"STARLINK-1184","OBJECT_ID":"2020-006BG","EPOCH":"2025-08-24T20:42:34.170336","MEAN_MOTION":15.06394075,"ECCENTRICITY":0.00011384,"INCLINATION":53.0559,"RA_OF_ASC_NODE":50.2084,"ARG_OF_PERICENTER":88.3097,"MEAN_ANOMALY":271.8022,"EPHEMERIS_TYPE":0,"CLASSIFICATION_TYPE":"U","NORAD_CAT_ID":45098,"ELEMENT_SET_NO":999,"REV_AT_EPOCH":30735,"BSTAR":7.2010317e-5,"MEAN_MOTION_DOT":7.91e-6,"MEAN_MOTION_DDOT":0},{"OBJECT_NAME":"STARLINK-1193","OBJECT_ID":"2020-006BJ","EPOCH":"2025-08-25T04:34:56.999136","MEAN_MOTION":15.0639819,"ECCENTRICITY":0.00013631,"INCLINATION":53.0557,"RA_OF_ASC_NODE":48.7341,"ARG_OF_PERICENTER":88.4048,"MEAN_ANOMALY":271.7097,"EPHEMERIS_TYPE":0,"CLASSIFICATION_TYPE":"U","NORAD_CAT_ID":45100,"ELEMENT_SET_NO":999,"REV_AT_EPOCH":30740,"BSTAR":5.6561912e-5,"MEAN_MOTION_DOT":5.61e-6,"MEAN_MOTION_DDOT":0},{"OBJECT_NAME":"STARLINK-1143","OBJECT_ID":"2020-012B","EPOCH":"2025-08-25T03:12:58.152960","MEAN_MOTION":15.30055038,"ECCENTRICITY":0.00046059,"INCLINATION":53.0575,"RA_OF_ASC_NODE":186.2894,"ARG_OF_PERICENTER":35.7139,"MEAN_ANOMALY":324.4168,"EPHEMERIS_TYPE":0,"CLASSIFICATION_TYPE":"U","NORAD_CAT_ID":45179,"ELEMENT_SET_NO":999,"REV_AT_EPOCH":30553,"BSTAR":0.0019239556,"MEAN_MOTION_DOT":0.0005682,"MEAN_MOTION_DDOT":0},{"OBJECT_NAME":"STARLINK-1200","OBJECT_ID":"2020-012D","EPOCH":"2025-08-25T14:00:03.000384","MEAN_MOTION":15.95239486,"ECCENTRICITY":0.00091246,"INCLINATION":53.0461,"RA_OF_ASC_NODE":166.2019,"ARG_OF_PERICENTER":53.7453,"MEAN_ANOMALY":135.1885,"EPHEMERIS_TYPE":0,"CLASSIFICATION_TYPE":"U","NORAD_CAT_ID":45181,"ELEMENT_SET_NO":999,"REV_AT_EPOCH":595,"BSTAR":0.00063564602,"MEAN_MOTION_DOT":0.00254225,"MEAN_MOTION_DDOT":3.6414966e-5},{"OBJECT_NAME":"STARLINK-1201","OBJECT_ID":"2020-012E","EPOCH":"2025-08-25T14:00:03.000384","MEAN_MOTION":15.89192436,"ECCENTRICITY":0.00090633,"INCLINATION":53.0432,"RA_OF_ASC_NODE":145.9641,"ARG_OF_PERICENTER":54.8023,"MEAN_ANOMALY":155.3489,"EPHEMERIS_TYPE":0,"CLASSIFICATION_TYPE":"U","NORAD_CAT_ID":45182,"ELEMENT_SET_NO":999,"REV_AT_EPOCH":594,"BSTAR":0.0010836055,"MEAN_MOTION_DOT":0.00316838,"MEAN_MOTION_DDOT":4.7675877e-5},{"OBJECT_NAME":"STARLINK-1202","OBJECT_ID":"2020-012F","EPOCH":"2025-08-25T04:29:38.234112","MEAN_MOTION":15.06405109,"ECCENTRICITY":0.00014647,"INCLINATION":53.0546,"RA_OF_ASC_NODE":208.7521,"ARG_OF_PERICENTER":90.0121,"MEAN_ANOMALY":270.1036,"EPHEMERIS_TYPE":0,"CLASSIFICATION_TYPE":"U","NORAD_CAT_ID":45183,"ELEMENT_SET_NO":999,"REV_AT_EPOCH":30522,"BSTAR":3.4908294e-5,"MEAN_MOTION_DOT":2.39e-6,"MEAN_MOTION_DDOT":0},{"OBJECT_NAME":"STARLINK-1216","OBJECT_ID":"2020-012H","EPOCH":"2025-08-25T05:54:33.541920","MEAN_MOTION":15.06400136,"ECCENTRICITY":0.00014172,"INCLINATION":53.0547,"RA_OF_ASC_NODE":208.4866,"ARG_OF_PERICENTER":86.8461,"MEAN_ANOMALY":273.2691,"EPHEMERIS_TYPE":0,"CLASSIFICATION_TYPE":"U","NORAD_CAT_ID":45185,"ELEMENT_SET_NO":999,"REV_AT_EPOCH":30517,"BSTAR":7.9670868e-5,"MEAN_MOTION_DOT":9.05e-6,"MEAN_MOTION_DDOT":0},{"OBJECT_NAME":"STARLINK-1224","OBJECT_ID":"2020-012J","EPOCH":"2025-08-25T14:00:03.000384","MEAN_MOTION":15.90695629,"ECCENTRICITY":0.00099523,"INCLINATION":53.0419,"RA_OF_ASC_NODE":167.3424,"ARG_OF_PERICENTER":44.6282,"MEAN_ANOMALY":53.6408,"EPHEMERIS_TYPE":0,"CLASSIFICATION_TYPE":"U","NORAD_CAT_ID":45186,"ELEMENT_SET_NO":999,"REV_AT_EPOCH":605,"BSTAR":0.00085307433,"MEAN_MOTION_DOT":0.00268972,"MEAN_MOTION_DDOT":3.7807753e-5},{"OBJECT_NAME":"STARLINK-1225","OBJECT_ID":"2020-012K","EPOCH":"2025-08-25T04:45:34.000416","MEAN_MOTION":15.06394019,"ECCENTRICITY":0.00012155,"INCLINATION":53.0541,"RA_OF_ASC_NODE":208.7045,"ARG_OF_PERICENTER":98.809,"MEAN_ANOMALY":261.3036,"EPHEMERIS_TYPE":0,"CLASSIFICATION_TYPE":"U","NORAD_CAT_ID":45187,"ELEMENT_SET_NO":999,"REV_AT_EPOCH":30521,"BSTAR":0.00011200262,"MEAN_MOTION_DOT":1.387e-5,"MEAN_MOTION_DDOT":0},{"OBJECT_NAME":"STARLINK-1228","OBJECT_ID":"2020-012L","EPOCH":"2025-08-25T14:00:03.000384","MEAN_MOTION":15.95941148,"ECCENTRICITY":0.00031934,"INCLINATION":53.0363,"RA_OF_ASC_NODE":105.213,"ARG_OF_PERICENTER":37.9626,"MEAN_ANOMALY":229.8124,"EPHEMERIS_TYPE":0,"CLASSIFICATION_TYPE":"U","NORAD_CAT_ID":45188,"ELEMENT_SET_NO":999,"REV_AT_EPOCH":567,"BSTAR":0.00072307593,"MEAN_MOTION_DOT":0.00299857,"MEAN_MOTION_DDOT":4.6809997e-5},{"OBJECT_NAME":"STARLINK-1230","OBJECT_ID":"2020-012M","EPOCH":"2025-08-25T04:50:51.752832","MEAN_MOTION":15.06404447,"ECCENTRICITY":0.00014954,"INCLINATION":53.055,"RA_OF_ASC_NODE":208.6869,"ARG_OF_PERICENTER":85.1586,"MEAN_ANOMALY":274.9574,"EPHEMERIS_TYPE":0,"CLASSIFICATION_TYPE":"U","NORAD_CAT_ID":45189,"ELEMENT_SET_NO":999,"REV_AT_EPOCH":30244,"BSTAR":6.0841189e-5,"MEAN_MOTION_DOT":6.25e-6,"MEAN_MOTION_DDOT":0},{"OBJECT_NAME":"STARLINK-1234","OBJECT_ID":"2020-012N","EPOCH":"2025-08-25T05:17:24.644832","MEAN_MOTION":15.06398301,"ECCENTRICITY":0.00014574,"INCLINATION":53.0545,"RA_OF_ASC_NODE":168.6023,"ARG_OF_PERICENTER":94.4284,"MEAN_ANOMALY":265.6872,"EPHEMERIS_TYPE":0,"CLASSIFICATION_TYPE":"U","NORAD_CAT_ID":45190,"ELEMENT_SET_NO":999,"REV_AT_EPOCH":30568,"BSTAR":-5.328428e-6,"MEAN_MOTION_DOT":-3.61e-6,"MEAN_MOTION_DDOT":0},{"OBJECT_NAME":"STARLINK-1237","OBJECT_ID":"2020-012Q","EPOCH":"2025-08-25T14:00:03.000384","MEAN_MOTION":15.95206717,"ECCENTRICITY":0.00070972,"INCLINATION":53.0521,"RA_OF_ASC_NODE":166.5584,"ARG_OF_PERICENTER":55.4373,"MEAN_ANOMALY":151.2234,"EPHEMERIS_TYPE":0,"CLASSIFICATION_TYPE":"U","NORAD_CAT_ID":45192,"ELEMENT_SET_NO":999,"REV_AT_EPOCH":605,"BSTAR":0.00074668796,"MEAN_MOTION_DOT":0.00298158,"MEAN_MOTION_DDOT":4.6050721e-5},{"OBJECT_NAME":"STARLINK-1240","OBJECT_ID":"2020-012S","EPOCH":"2025-08-25T14:00:03.000384","MEAN_MOTION":15.84916006,"ECCENTRICITY":0.00109846,"INCLINATION":53.0437,"RA_OF_ASC_NODE":167.3106,"ARG_OF_PERICENTER":44.9346,"MEAN_ANOMALY":200.9176,"EPHEMERIS_TYPE":0,"CLASSIFICATION_TYPE":"U","NORAD_CAT_ID":45194,"ELEMENT_SET_NO":999,"REV_AT_EPOCH":604,"BSTAR":0.00077973513,"MEAN_MOTION_DOT":0.00190292,"MEAN_MOTION_DDOT":0},{"OBJECT_NAME":"STARLINK-1244","OBJECT_ID":"2020-012U","EPOCH":"2025-08-25T14:00:03.000384","MEAN_MOTION":15.886637,"ECCENTRICITY":0.00089196,"INCLINATION":53.0427,"RA_OF_ASC_NODE":167.4459,"ARG_OF_PERICENTER":47.0382,"MEAN_ANOMALY":205.4785,"EPHEMERIS_TYPE":0,"CLASSIFICATION_TYPE":"U","NORAD_CAT_ID":45196,"ELEMENT_SET_NO":999,"REV_AT_EPOCH":595,"BSTAR":0.00093246931,"MEAN_MOTION_DOT":0.00275949,"MEAN_MOTION_DDOT":0},{"OBJECT_NAME":"STARLINK-1269","OBJECT_ID":"2020-012V","EPOCH":"2025-08-25T14:40:01.682976","MEAN_MOTION":15.06391613,"ECCENTRICITY":0.00014337,"INCLINATION":53.0551,"RA_OF_ASC_NODE":206.8508,"ARG_OF_PERICENTER":84.8759,"MEAN_ANOMALY":275.2394,"EPHEMERIS_TYPE":0,"CLASSIFICATION_TYPE":"U","NORAD_CAT_ID":45197,"ELEMENT_SET_NO":999,"REV_AT_EPOCH":30525,"BSTAR":-4.3194321e-5,"MEAN_MOTION_DOT":-9.25e-6,"MEAN_MOTION_DDOT":0},{"OBJECT_NAME":"STARLINK-1154","OBJECT_ID":"2020-012W","EPOCH":"2025-08-25T03:17:59.165376","MEAN_MOTION":15.06399907,"ECCENTRICITY":0.00014651,"INCLINATION":53.0547,"RA_OF_ASC_NODE":188.9759,"ARG_OF_PERICENTER":91.8329,"MEAN_ANOMALY":268.2827,"EPHEMERIS_TYPE":0,"CLASSIFICATION_TYPE":"U","NORAD_CAT_ID":45198,"ELEMENT_SET_NO":999,"REV_AT_EPOCH":30543,"BSTAR":4.7856575e-5,"MEAN_MOTION_DOT":4.31e-6,"MEAN_MOTION_DDOT":0},{"OBJECT_NAME":"STARLINK-1199","OBJECT_ID":"2020-012Z","EPOCH":"2025-08-25T06:44:58.546752","MEAN_MOTION":15.06406803,"ECCENTRICITY":0.00014792,"INCLINATION":53.0546,"RA_OF_ASC_NODE":188.3307,"ARG_OF_PERICENTER":90.947,"MEAN_ANOMALY":269.1688,"EPHEMERIS_TYPE":0,"CLASSIFICATION_TYPE":"U","NORAD_CAT_ID":45201,"ELEMENT_SET_NO":999,"REV_AT_EPOCH":30551,"BSTAR":0.00014741189,"MEAN_MOTION_DOT":1.915e-5,"MEAN_MOTION_DDOT":0},{"OBJECT_NAME":"STARLINK-1206","OBJECT_ID":"2020-012AC","EPOCH":"2025-08-25T14:00:03.000384","MEAN_MOTION":15.85761123,"ECCENTRICITY":0.00095605,"INCLINATION":53.043,"RA_OF_ASC_NODE":148.276,"ARG_OF_PERICENTER":59.5604,"MEAN_ANOMALY":67.9539,"EPHEMERIS_TYPE":0,"CLASSIFICATION_TYPE":"U","NORAD_CAT_ID":45204,"ELEMENT_SET_NO":999,"REV_AT_EPOCH":604,"BSTAR":0.001164218,"MEAN_MOTION_DOT":0.00299693,"MEAN_MOTION_DDOT":0},{"OBJECT_NAME":"STARLINK-1208","OBJECT_ID":"2020-012AD","EPOCH":"2025-08-25T14:00:03.000384","MEAN_MOTION":15.81549211,"ECCENTRICITY":0.00110746,"INCLINATION":53.0429,"RA_OF_ASC_NODE":148.67,"ARG_OF_PERICENTER":57.589,"MEAN_ANOMALY":136.6985,"EPHEMERIS_TYPE":0,"CLASSIFICATION_TYPE":"U","NORAD_CAT_ID":45205,"ELEMENT_SET_NO":999,"REV_AT_EPOCH":588,"BSTAR":0.0011073983,"MEAN_MOTION_DOT":0.00231812,"MEAN_MOTION_DDOT":0},{"OBJECT_NAME":"STARLINK-1209","OBJECT_ID":"2020-012AE","EPOCH":"2025-08-25T05:22:42.479328","MEAN_MOTION":15.06409024,"ECCENTRICITY":0.00015112,"INCLINATION":53.0548,"RA_OF_ASC_NODE":168.5898,"ARG_OF_PERICENTER":90.3939,"MEAN_ANOMALY":269.7223,"EPHEMERIS_TYPE":0,"CLASSIFICATION_TYPE":"U","NORAD_CAT_ID":45206,"ELEMENT_SET_NO":999,"REV_AT_EPOCH":30483,"BSTAR":0.0001530962,"MEAN_MOTION_DOT":2.0e-5,"MEAN_MOTION_DDOT":0},{"OBJECT_NAME":"STARLINK-1210","OBJECT_ID":"2020-012AF","EPOCH":"2025-08-25T01:18:12.676896","MEAN_MOTION":15.41370444,"ECCENTRICITY":0.00081815,"INCLINATION":53.0298,"RA_OF_ASC_NODE":149.4467,"ARG_OF_PERICENTER":131.6184,"MEAN_ANOMALY":228.5522,"EPHEMERIS_TYPE":0,"CLASSIFICATION_TYPE":"U","NORAD_CAT_ID":45207,"ELEMENT_SET_NO":999,"REV_AT_EPOCH":30604,"BSTAR":0.00098499081,"MEAN_MOTION_DOT":0.00041612,"MEAN_MOTION_DDOT":0},{"OBJECT_NAME":"STARLINK-1219","OBJECT_ID":"2020-012AJ","EPOCH":"2025-08-25T15:36:16.498944","MEAN_MOTION":16.06819521,"ECCENTRICITY":0.000258,"INCLINATION":53.0331,"RA_OF_ASC_NODE":113.9393,"ARG_OF_PERICENTER":285.5651,"MEAN_ANOMALY":121.7626,"EPHEMERIS_TYPE":0,"CLASSIFICATION_TYPE":"U","NORAD_CAT_ID":45210,"ELEMENT_SET_NO":999,"REV_AT_EPOCH":30563,"BSTAR":0.00063064,"MEAN_MOTION_DOT":0.00495416,"MEAN_MOTION_DDOT":0.00012946}]
